ORBCOMM FM103           
1 40091U 14040F   24281.76064958  .00003579  00000+0  82189-3 0  9999
2 40091  47.0031 129.1561 0002447 211.4097 148.6642 14.57187405544339
ORBCOMM FM114           
1 41179U 15081A   24281.58457027  .00005328  00000+0  12053-2 0  9992
2 41179  47.0028  39.1840 0003189 267.0935  92.9585 14.57169994467610
ORBCOMM FM119           
1 41180U 15081B   24281.49195273  .00004020  00000+0  91892-3 0  9993
2 41180  47.0002 308.8500 0002032 312.8395  47.2319 14.57164849468857
ORBCOMM FM105           
1 41181U 15081C   24281.43165552  .00002227  00000+0  68136-3 0  9997
2 41181  47.0007 289.8940 0002659 272.1005  87.9571 14.44704740464190
ORBCOMM FM110           
1 41182U 15081D   24281.49225634  .00005296  00000+0  11987-2 0  9992
2 41182  47.0023  39.0036 0000362  22.1896 337.9005 14.57152958467476
ORBCOMM FM118           
1 41183U 15081E   24281.81317816  .00005595  00000+0  12641-2 0  9993
2 41183  47.0043  37.8357 0000593  54.6335 305.4606 14.57164947467709
ORBCOMM FM112           
1 41184U 15081F   24281.81233118  .00004412  00000+0  10050-2 0  9995
2 41184  46.9984 306.5367 0002524 303.2113  56.8530 14.57158630468898
ORBCOMM FM113           
1 41185U 15081G   24281.78937935  .00003696  00000+0  84819-3 0  9998
2 41185  47.0004 306.9346 0002151 317.4986  42.5732 14.57145520468896
