<?xml version="1.0" encoding="UTF-8"?>
<ndm xmlns:xsi="http://www.w3.org/2001/XMLSchema-instance" xsi:noNamespaceSchemaLocation="https://sanaregistry.org/r/ndmxml_unqualified/ndmxml-2.0.0-master-2.0.xsd">
<omm id="CCSDS_OMM_VERS" version="2.0">
<header><CREATION_DATE/><ORIGINATOR/></header><body><segment><metadata><OBJECT_NAME>ORBCOMM FM103</OBJECT_NAME><OBJECT_ID>2014-040F</OBJECT_ID><CENTER_NAME>EARTH</CENTER_NAME><REF_FRAME>TEME</REF_FRAME><TIME_SYSTEM>UTC</TIME_SYSTEM><MEAN_ELEMENT_THEORY>SGP4</MEAN_ELEMENT_THEORY></metadata><data><meanElements><EPOCH>2024-10-07T18:15:20.123712</EPOCH><MEAN_MOTION>14.57187405</MEAN_MOTION><ECCENTRICITY>.0002447</ECCENTRICITY><INCLINATION>47.0031</INCLINATION><RA_OF_ASC_NODE>129.1561</RA_OF_ASC_NODE><ARG_OF_PERICENTER>211.4097</ARG_OF_PERICENTER><MEAN_ANOMALY>148.6642</MEAN_ANOMALY></meanElements><tleParameters><EPHEMERIS_TYPE>0</EPHEMERIS_TYPE><CLASSIFICATION_TYPE>U</CLASSIFICATION_TYPE><NORAD_CAT_ID>40091</NORAD_CAT_ID><ELEMENT_SET_NO>999</ELEMENT_SET_NO><REV_AT_EPOCH>54433</REV_AT_EPOCH><BSTAR>.82189E-3</BSTAR><MEAN_MOTION_DOT>.3579E-4</MEAN_MOTION_DOT><MEAN_MOTION_DDOT>0</MEAN_MOTION_DDOT></tleParameters></data></segment></body></omm>
<omm id="CCSDS_OMM_VERS" version="2.0">
<header><CREATION_DATE/><ORIGINATOR/></header><body><segment><metadata><OBJECT_NAME>ORBCOMM FM114</OBJECT_NAME><OBJECT_ID>2015-081A</OBJECT_ID><CENTER_NAME>EARTH</CENTER_NAME><REF_FRAME>TEME</REF_FRAME><TIME_SYSTEM>UTC</TIME_SYSTEM><MEAN_ELEMENT_THEORY>SGP4</MEAN_ELEMENT_THEORY></metadata><data><meanElements><EPOCH>2024-10-07T14:01:46.871328</EPOCH><MEAN_MOTION>14.57169994</MEAN_MOTION><ECCENTRICITY>.0003189</ECCENTRICITY><INCLINATION>47.0028</INCLINATION><RA_OF_ASC_NODE>39.1840</RA_OF_ASC_NODE><ARG_OF_PERICENTER>267.0935</ARG_OF_PERICENTER><MEAN_ANOMALY>92.9585</MEAN_ANOMALY></meanElements><tleParameters><EPHEMERIS_TYPE>0</EPHEMERIS_TYPE><CLASSIFICATION_TYPE>U</CLASSIFICATION_TYPE><NORAD_CAT_ID>41179</NORAD_CAT_ID><ELEMENT_SET_NO>999</ELEMENT_SET_NO><REV_AT_EPOCH>46761</REV_AT_EPOCH><BSTAR>.12053E-2</BSTAR><MEAN_MOTION_DOT>.5328E-4</MEAN_MOTION_DOT><MEAN_MOTION_DDOT>0</MEAN_MOTION_DDOT></tleParameters></data></segment></body></omm>
<omm id="CCSDS_OMM_VERS" version="2.0">
<header><CREATION_DATE/><ORIGINATOR/></header><body><segment><metadata><OBJECT_NAME>ORBCOMM FM119</OBJECT_NAME><OBJECT_ID>2015-081B</OBJECT_ID><CENTER_NAME>EARTH</CENTER_NAME><REF_FRAME>TEME</REF_FRAME><TIME_SYSTEM>UTC</TIME_SYSTEM><MEAN_ELEMENT_THEORY>SGP4</MEAN_ELEMENT_THEORY></metadata><data><meanElements><EPOCH>2024-10-07T11:48:24.715872</EPOCH><MEAN_MOTION>14.57164849</MEAN_MOTION><ECCENTRICITY>.0002032</ECCENTRICITY><INCLINATION>47.0002</INCLINATION><RA_OF_ASC_NODE>308.8500</RA_OF_ASC_NODE><ARG_OF_PERICENTER>312.8395</ARG_OF_PERICENTER><MEAN_ANOMALY>47.2319</MEAN_ANOMALY></meanElements><tleParameters><EPHEMERIS_TYPE>0</EPHEMERIS_TYPE><CLASSIFICATION_TYPE>U</CLASSIFICATION_TYPE><NORAD_CAT_ID>41180</NORAD_CAT_ID><ELEMENT_SET_NO>999</ELEMENT_SET_NO><REV_AT_EPOCH>46885</REV_AT_EPOCH><BSTAR>.91892E-3</BSTAR><MEAN_MOTION_DOT>.402E-4</MEAN_MOTION_DOT><MEAN_MOTION_DDOT>0</MEAN_MOTION_DDOT></tleParameters></data></segment></body></omm>
<omm id="CCSDS_OMM_VERS" version="2.0">
<header><CREATION_DATE/><ORIGINATOR/></header><body><segment><metadata><OBJECT_NAME>ORBCOMM FM105</OBJECT_NAME><OBJECT_ID>2015-081C</OBJECT_ID><CENTER_NAME>EARTH</CENTER_NAME><REF_FRAME>TEME</REF_FRAME><TIME_SYSTEM>UTC</TIME_SYSTEM><MEAN_ELEMENT_THEORY>SGP4</MEAN_ELEMENT_THEORY></metadata><data><meanElements><EPOCH>2024-10-07T10:21:35.036928</EPOCH><MEAN_MOTION>14.44704740</MEAN_MOTION><ECCENTRICITY>.0002659</ECCENTRICITY><INCLINATION>47.0007</INCLINATION><RA_OF_ASC_NODE>289.8940</RA_OF_ASC_NODE><ARG_OF_PERICENTER>272.1005</ARG_OF_PERICENTER><MEAN_ANOMALY>87.9571</MEAN_ANOMALY></meanElements><tleParameters><EPHEMERIS_TYPE>0</EPHEMERIS_TYPE><CLASSIFICATION_TYPE>U</CLASSIFICATION_TYPE><NORAD_CAT_ID>41181</NORAD_CAT_ID><ELEMENT_SET_NO>999</ELEMENT_SET_NO><REV_AT_EPOCH>46419</REV_AT_EPOCH><BSTAR>.68136E-3</BSTAR><MEAN_MOTION_DOT>.2227E-4</MEAN_MOTION_DOT><MEAN_MOTION_DDOT>0</MEAN_MOTION_DDOT></tleParameters></data></segment></body></omm>
<omm id="CCSDS_OMM_VERS" version="2.0">
<header><CREATION_DATE/><ORIGINATOR/></header><body><segment><metadata><OBJECT_NAME>ORBCOMM FM110</OBJECT_NAME><OBJECT_ID>2015-081D</OBJECT_ID><CENTER_NAME>EARTH</CENTER_NAME><REF_FRAME>TEME</REF_FRAME><TIME_SYSTEM>UTC</TIME_SYSTEM><MEAN_ELEMENT_THEORY>SGP4</MEAN_ELEMENT_THEORY></metadata><data><meanElements><EPOCH>2024-10-07T11:48:50.947776</EPOCH><MEAN_MOTION>14.57152958</MEAN_MOTION><ECCENTRICITY>.0000362</ECCENTRICITY><INCLINATION>47.0023</INCLINATION><RA_OF_ASC_NODE>39.0036</RA_OF_ASC_NODE><ARG_OF_PERICENTER>22.1896</ARG_OF_PERICENTER><MEAN_ANOMALY>337.9005</MEAN_ANOMALY></meanElements><tleParameters><EPHEMERIS_TYPE>0</EPHEMERIS_TYPE><CLASSIFICATION_TYPE>U</CLASSIFICATION_TYPE><NORAD_CAT_ID>41182</NORAD_CAT_ID><ELEMENT_SET_NO>999</ELEMENT_SET_NO><REV_AT_EPOCH>46747</REV_AT_EPOCH><BSTAR>.11987E-2</BSTAR><MEAN_MOTION_DOT>.5296E-4</MEAN_MOTION_DOT><MEAN_MOTION_DDOT>0</MEAN_MOTION_DDOT></tleParameters></data></segment></body></omm>
<omm id="CCSDS_OMM_VERS" version="2.0">
<header><CREATION_DATE/><ORIGINATOR/></header><body><segment><metadata><OBJECT_NAME>ORBCOMM FM118</OBJECT_NAME><OBJECT_ID>2015-081E</OBJECT_ID><CENTER_NAME>EARTH</CENTER_NAME><REF_FRAME>TEME</REF_FRAME><TIME_SYSTEM>UTC</TIME_SYSTEM><MEAN_ELEMENT_THEORY>SGP4</MEAN_ELEMENT_THEORY></metadata><data><meanElements><EPOCH>2024-10-07T19:30:58.593024</EPOCH><MEAN_MOTION>14.57164947</MEAN_MOTION><ECCENTRICITY>.0000593</ECCENTRICITY><INCLINATION>47.0043</INCLINATION><RA_OF_ASC_NODE>37.8357</RA_OF_ASC_NODE><ARG_OF_PERICENTER>54.6335</ARG_OF_PERICENTER><MEAN_ANOMALY>305.4606</MEAN_ANOMALY></meanElements><tleParameters><EPHEMERIS_TYPE>0</EPHEMERIS_TYPE><CLASSIFICATION_TYPE>U</CLASSIFICATION_TYPE><NORAD_CAT_ID>41183</NORAD_CAT_ID><ELEMENT_SET_NO>999</ELEMENT_SET_NO><REV_AT_EPOCH>46770</REV_AT_EPOCH><BSTAR>.12641E-2</BSTAR><MEAN_MOTION_DOT>.5595E-4</MEAN_MOTION_DOT><MEAN_MOTION_DDOT>0</MEAN_MOTION_DDOT></tleParameters></data></segment></body></omm>
<omm id="CCSDS_OMM_VERS" version="2.0">
<header><CREATION_DATE/><ORIGINATOR/></header><body><segment><metadata><OBJECT_NAME>ORBCOMM FM112</OBJECT_NAME><OBJECT_ID>2015-081F</OBJECT_ID><CENTER_NAME>EARTH</CENTER_NAME><REF_FRAME>TEME</REF_FRAME><TIME_SYSTEM>UTC</TIME_SYSTEM><MEAN_ELEMENT_THEORY>SGP4</MEAN_ELEMENT_THEORY></metadata><data><meanElements><EPOCH>2024-10-07T19:29:45.413952</EPOCH><MEAN_MOTION>14.57158630</MEAN_MOTION><ECCENTRICITY>.0002524</ECCENTRICITY><INCLINATION>46.9984</INCLINATION><RA_OF_ASC_NODE>306.5367</RA_OF_ASC_NODE><ARG_OF_PERICENTER>303.2113</ARG_OF_PERICENTER><MEAN_ANOMALY>56.8530</MEAN_ANOMALY></meanElements><tleParameters><EPHEMERIS_TYPE>0</EPHEMERIS_TYPE><CLASSIFICATION_TYPE>U</CLASSIFICATION_TYPE><NORAD_CAT_ID>41184</NORAD_CAT_ID><ELEMENT_SET_NO>999</ELEMENT_SET_NO><REV_AT_EPOCH>46889</REV_AT_EPOCH><BSTAR>.1005E-2</BSTAR><MEAN_MOTION_DOT>.4412E-4</MEAN_MOTION_DOT><MEAN_MOTION_DDOT>0</MEAN_MOTION_DDOT></tleParameters></data></segment></body></omm>
<omm id="CCSDS_OMM_VERS" version="2.0">
<header><CREATION_DATE/><ORIGINATOR/></header><body><segment><metadata><OBJECT_NAME>ORBCOMM FM113</OBJECT_NAME><OBJECT_ID>2015-081G</OBJECT_ID><CENTER_NAME>EARTH</CENTER_NAME><REF_FRAME>TEME</REF_FRAME><TIME_SYSTEM>UTC</TIME_SYSTEM><MEAN_ELEMENT_THEORY>SGP4</MEAN_ELEMENT_THEORY></metadata><data><meanElements><EPOCH>2024-10-07T18:56:42.375840</EPOCH><MEAN_MOTION>14.57145520</MEAN_MOTION><ECCENTRICITY>.0002151</ECCENTRICITY><INCLINATION>47.0004</INCLINATION><RA_OF_ASC_NODE>306.9346</RA_OF_ASC_NODE><ARG_OF_PERICENTER>317.4986</ARG_OF_PERICENTER><MEAN_ANOMALY>42.5732</MEAN_ANOMALY></meanElements><tleParameters><EPHEMERIS_TYPE>0</EPHEMERIS_TYPE><CLASSIFICATION_TYPE>U</CLASSIFICATION_TYPE><NORAD_CAT_ID>41185</NORAD_CAT_ID><ELEMENT_SET_NO>999</ELEMENT_SET_NO><REV_AT_EPOCH>46889</REV_AT_EPOCH><BSTAR>.84819E-3</BSTAR><MEAN_MOTION_DOT>.3696E-4</MEAN_MOTION_DOT><MEAN_MOTION_DDOT>0</MEAN_MOTION_DDOT></tleParameters></data></segment></body></omm>

</ndm>
